CTC2_L_00008001-01
1 49505U 22020NJ  26070.40841435  .00000000  00000+0  00000-0 0  9992
2 49505  45.0000   0.0000 0000000   0.0000   0.0000 15.80155680    14
CTC2_L_00008001-02
1 49506U 25771EY  26070.40841435  .00000000  00000+0  00000-0 0  9999
2 49506  45.0000   0.0000 0000000   0.0000  90.0000 15.80155680    14
CTC2_L_00008001-03
1 49507U 22235JQ  26070.40841435  .00000000  00000+0  00000-0 0  9992
2 49507  45.0000   0.0000 0000000   0.0000 180.0000 15.80155680    15
CTC2_L_00008001-04
1 49508U 24848XU  26070.40841435  .00000000  00000+0  00000-0 0  9995
2 49508  45.0000   0.0000 0000000   0.0000 270.0000 15.80155680    16
CTC2_L_00008002-01
1 49509U 23757TP  26070.40841435  .00000000  00000+0  00000-0 0  9994
2 49509  45.0000  12.0000 0000000   0.0000  12.0000 15.80155680    14
CTC2_L_00008002-02
1 49510U 23074TB  26070.40841435  .00000000  00000+0  00000-0 0  9998
2 49510  45.0000  12.0000 0000000   0.0000 102.0000 15.80155680    16
CTC2_L_00008002-03
1 49511U 22728CC  26070.40841435  .00000000  00000+0  00000-0 0  9994
2 49511  45.0000  12.0000 0000000   0.0000 192.0000 15.80155680    16
CTC2_L_00008002-04
1 49512U 23726XJ  26070.40841435  .00000000  00000+0  00000-0 0  9994
2 49512  45.0000  12.0000 0000000   0.0000 282.0000 15.80155680    17
CTC2_L_00008003-01
1 49513U 24973EX  26070.40841435  .00000000  00000+0  00000-0 0  9990
2 49513  45.0000  24.0000 0000000   0.0000  24.0000 15.80155680    15
CTC2_L_00008003-02
1 49514U 25900LU  26070.40841435  .00000000  00000+0  00000-0 0  9992
2 49514  45.0000  24.0000 0000000   0.0000 114.0000 15.80155680    16
CTC2_L_00008003-03
1 49515U 24114VS  26070.40841435  .00000000  00000+0  00000-0 0  9999
2 49515  45.0000  24.0000 0000000   0.0000 204.0000 15.80155680    17
CTC2_L_00008003-04
1 49516U 24664XS  26070.40841435  .00000000  00000+0  00000-0 0  9990
2 49516  45.0000  24.0000 0000000   0.0000 294.0000 15.80155680    17
CTC2_L_00008004-01
1 49517U 23987XN  26070.40841435  .00000000  00000+0  00000-0 0  9998
2 49517  45.0000  36.0000 0000000   0.0000  36.0000 15.80155680    15
CTC2_L_00008004-02
1 49518U 23411WR  26070.40841435  .00000000  00000+0  00000-0 0  9991
2 49518  45.0000  36.0000 0000000   0.0000 126.0000 15.80155680    16
CTC2_L_00008004-03
1 49519U 23029JJ  26070.40841435  .00000000  00000+0  00000-0 0  9997
2 49519  45.0000  36.0000 0000000   0.0000 216.0000 15.80155680    17
CTC2_L_00008004-04
1 49520U 24017WT  26070.40841435  .00000000  00000+0  00000-0 0  9997
2 49520  45.0000  36.0000 0000000   0.0000 306.0000 15.80155680    19
CTC2_L_00008005-01
1 49521U 26995PI  26070.40841435  .00000000  00000+0  00000-0 0  9995
2 49521  45.0000  48.0000 0000000   0.0000  48.0000 15.80155680    16
CTC2_L_00008005-02
1 49522U 22616TA  26070.40841435  .00000000  00000+0  00000-0 0  9992
2 49522  45.0000  48.0000 0000000   0.0000 138.0000 15.80155680    17
CTC2_L_00008005-03
1 49523U 26487JR  26070.40841435  .00000000  00000+0  00000-0 0  9993
2 49523  45.0000  48.0000 0000000   0.0000 228.0000 15.80155680    18
CTC2_L_00008005-04
1 49524U 26072MV  26070.40841435  .00000000  00000+0  00000-0 0  9994
2 49524  45.0000  48.0000 0000000   0.0000 318.0000 15.80155680    19
CTC2_L_00008006-01
1 49525U 25490JN  26070.40841435  .00000000  00000+0  00000-0 0  9998
2 49525  45.0000  60.0000 0000000   0.0000  60.0000 15.80155680    18
CTC2_L_00008006-02
1 49526U 25548ML  26070.40841435  .00000000  00000+0  00000-0 0  9993
2 49526  45.0000  60.0000 0000000   0.0000 150.0000 15.80155680    19
CTC2_L_00008006-03
1 49527U 24173ZP  26070.40841435  .00000000  00000+0  00000-0 0  9997
2 49527  45.0000  60.0000 0000000   0.0000 240.0000 15.80155680    10
CTC2_L_00008006-04
1 49528U 26173UT  26070.40841435  .00000000  00000+0  00000-0 0  9990
2 49528  45.0000  60.0000 0000000   0.0000 330.0000 15.80155680    11
CTC2_L_00008007-01
1 49529U 22278AV  26070.40841435  .00000000  00000+0  00000-0 0  9993
2 49529  45.0000  72.0000 0000000   0.0000  72.0000 15.80155680    18
CTC2_L_00008007-02
1 49530U 24184YI  26070.40841435  .00000000  00000+0  00000-0 0  9993
2 49530  45.0000  72.0000 0000000   0.0000 162.0000 15.80155680    10
CTC2_L_00008007-03
1 49531U 24834DJ  26070.40841435  .00000000  00000+0  00000-0 0  9996
2 49531  45.0000  72.0000 0000000   0.0000 252.0000 15.80155680    11
CTC2_L_00008007-04
1 49532U 23309TV  26070.40841435  .00000000  00000+0  00000-0 0  9993
2 49532  45.0000  72.0000 0000000   0.0000 342.0000 15.80155680    12
CTC2_L_00008008-01
1 49533U 26544LR  26070.40841435  .00000000  00000+0  00000-0 0  9998
2 49533  45.0000  84.0000 0000000   0.0000  84.0000 15.80155680    19
CTC2_L_00008008-02
1 49534U 24859TN  26070.40841435  .00000000  00000+0  00000-0 0  9996
2 49534  45.0000  84.0000 0000000   0.0000 174.0000 15.80155680    10
CTC2_L_00008008-03
1 49535U 24645BE  26070.40841435  .00000000  00000+0  00000-0 0  9990
2 49535  45.0000  84.0000 0000000   0.0000 264.0000 15.80155680    11
CTC2_L_00008008-04
1 49536U 26546CV  26070.40841435  .00000000  00000+0  00000-0 0  9993
2 49536  45.0000  84.0000 0000000   0.0000 354.0000 15.80155680    12
CTC2_L_00008009-01
1 49537U 25848XO  26070.40841435  .00000000  00000+0  00000-0 0  9998
2 49537  45.0000  96.0000 0000000   0.0000  96.0000 15.80155680    19
CTC2_L_00008009-02
1 49538U 24252HH  26070.40841435  .00000000  00000+0  00000-0 0  9997
2 49538  45.0000  96.0000 0000000   0.0000 186.0000 15.80155680    10
CTC2_L_00008009-03
1 49539U 26591IJ  26070.40841435  .00000000  00000+0  00000-0 0  9996
2 49539  45.0000  96.0000 0000000   0.0000 276.0000 15.80155680    11
CTC2_L_00008009-04
1 49540U 24943JM  26070.40841435  .00000000  00000+0  00000-0 0  9997
2 49540  45.0000  96.0000 0000000   0.0000   6.0000 15.80155680    14
CTC2_L_00008010-01
1 49541U 25366VL  26070.40841435  .00000000  00000+0  00000-0 0  9998
2 49541  45.0000 108.0000 0000000   0.0000 108.0000 15.80155680    12
CTC2_L_00008010-02
1 49542U 26882KS  26070.40841435  .00000000  00000+0  00000-0 0  9993
2 49542  45.0000 108.0000 0000000   0.0000 198.0000 15.80155680    12
CTC2_L_00008010-03
1 49543U 23420BN  26070.40841435  .00000000  00000+0  00000-0 0  9999
2 49543  45.0000 108.0000 0000000   0.0000 288.0000 15.80155680    13
CTC2_L_00008010-04
1 49544U 25853ER  26070.40841435  .00000000  00000+0  00000-0 0  9992
2 49544  45.0000 108.0000 0000000   0.0000  18.0000 15.80155680    15
CTC2_L_00008011-01
1 49545U 25862AX  26070.40841435  .00000000  00000+0  00000-0 0  9993
2 49545  45.0000 120.0000 0000000   0.0000 120.0000 15.80155680    14
CTC2_L_00008011-02
1 49546U 24710LS  26070.40841435  .00000000  00000+0  00000-0 0  9995
2 49546  45.0000 120.0000 0000000   0.0000 210.0000 15.80155680    15
CTC2_L_00008011-03
1 49547U 22007JM  26070.40841435  .00000000  00000+0  00000-0 0  9993
2 49547  45.0000 120.0000 0000000   0.0000 300.0000 15.80155680    16
CTC2_L_00008011-04
1 49548U 23459GK  26070.40841435  .00000000  00000+0  00000-0 0  9996
2 49548  45.0000 120.0000 0000000   0.0000  30.0000 15.80155680    17
CTC2_L_00008012-01
1 49549U 24144LM  26070.40841435  .00000000  00000+0  00000-0 0  9999
2 49549  45.0000 132.0000 0000000   0.0000 132.0000 15.80155680    14
CTC2_L_00008012-02
1 49550U 23901CJ  26070.40841435  .00000000  00000+0  00000-0 0  9991
2 49550  45.0000 132.0000 0000000   0.0000 222.0000 15.80155680    16
CTC2_L_00008012-03
1 49551U 24291QV  26070.40841435  .00000000  00000+0  00000-0 0  9995
2 49551  45.0000 132.0000 0000000   0.0000 312.0000 15.80155680    17
CTC2_L_00008012-04
1 49552U 22015SH  26070.40841435  .00000000  00000+0  00000-0 0  9998
2 49552  45.0000 132.0000 0000000   0.0000  42.0000 15.80155680    18
CTC2_L_00008013-01
1 49553U 23818ID  26070.40841435  .00000000  00000+0  00000-0 0  9991
2 49553  45.0000 144.0000 0000000   0.0000 144.0000 15.80155680    15
CTC2_L_00008013-02
1 49554U 22862HG  26070.40841435  .00000000  00000+0  00000-0 0  9990
2 49554  45.0000 144.0000 0000000   0.0000 234.0000 15.80155680    16
CTC2_L_00008013-03
1 49555U 22236XJ  26070.40841435  .00000000  00000+0  00000-0 0  9996
2 49555  45.0000 144.0000 0000000   0.0000 324.0000 15.80155680    17
CTC2_L_00008013-04
1 49556U 26536MN  26070.40841435  .00000000  00000+0  00000-0 0  9994
2 49556  45.0000 144.0000 0000000   0.0000  54.0000 15.80155680    18
CTC2_L_00008014-01
1 49557U 25741FE  26070.40841435  .00000000  00000+0  00000-0 0  9992
2 49557  45.0000 156.0000 0000000   0.0000 156.0000 15.80155680    15
CTC2_L_00008014-02
1 49558U 22286SA  26070.40841435  .00000000  00000+0  00000-0 0  9994
2 49558  45.0000 156.0000 0000000   0.0000 246.0000 15.80155680    16
CTC2_L_00008014-03
1 49559U 26445JM  26070.40841435  .00000000  00000+0  00000-0 0  9996
2 49559  45.0000 156.0000 0000000   0.0000 336.0000 15.80155680    17
CTC2_L_00008014-04
1 49560U 24797LJ  26070.40841435  .00000000  00000+0  00000-0 0  9996
2 49560  45.0000 156.0000 0000000   0.0000  66.0000 15.80155680    19
CTC2_L_00008015-01
1 49561U 22646LV  26070.40841435  .00000000  00000+0  00000-0 0  9998
2 49561  45.0000 168.0000 0000000   0.0000 168.0000 15.80155680    16
CTC2_L_00008015-02
1 49562U 24087FR  26070.40841435  .00000000  00000+0  00000-0 0  9990
2 49562  45.0000 168.0000 0000000   0.0000 258.0000 15.80155680    17
CTC2_L_00008015-03
1 49563U 22521YG  26070.40841435  .00000000  00000+0  00000-0 0  9992
2 49563  45.0000 168.0000 0000000   0.0000 348.0000 15.80155680    18
CTC2_L_00008015-04
1 49564U 23772OD  26070.40841435  .00000000  00000+0  00000-0 0  9992
2 49564  45.0000 168.0000 0000000   0.0000  78.0000 15.80155680    19
CTC2_L_00008016-01
1 49565U 23503IS  26070.40841435  .00000000  00000+0  00000-0 0  9995
2 49565  45.0000 180.0000 0000000   0.0000 180.0000 15.80155680    18
CTC2_L_00008016-02
1 49566U 23618QY  26070.40841435  .00000000  00000+0  00000-0 0  9993
2 49566  45.0000 180.0000 0000000   0.0000 270.0000 15.80155680    19
